[{"OBJECT_NAME":"STARLINK-30227","OBJECT_ID":"2023-113L","EPOCH":"2026-03-09T05:24:25.568352","MEAN_MOTION":15.18160462,"ECCENTRICITY":0.00027892,"INCLINATION":43.0053,"RA_OF_ASC_NODE":4.8681,"ARG_OF_PERICENTER":225.8359,"MEAN_ANOMALY":134.226,"EPHEMERIS_TYPE":0,"CLASSIFICATION_TYPE":"U","NORAD_CAT_ID":57505,"ELEMENT_SET_NO":999,"REV_AT_EPOCH":14376,"BSTAR":0.0015710865,"MEAN_MOTION_DOT":0.00032605,"MEAN_MOTION_DDOT":0},{"OBJECT_NAME":"FLOCK 4H-15","OBJECT_ID":"2025-276BE","EPOCH":"2026-03-09T17:00:11.631744","MEAN_MOTION":15.18339872,"ECCENTRICITY":0.00044925,"INCLINATION":97.4287,"RA_OF_ASC_NODE":143.9241,"ARG_OF_PERICENTER":23.8137,"MEAN_ANOMALY":336.3304,"EPHEMERIS_TYPE":0,"CLASSIFICATION_TYPE":"U","NORAD_CAT_ID":66718,"ELEMENT_SET_NO":999,"REV_AT_EPOCH":1531,"BSTAR":0.00037246212,"MEAN_MOTION_DOT":7.584e-5,"MEAN_MOTION_DDOT":0}]
