STARLINK-30227          
1 57505U 23113L   26068.22529593  .00032605  00000+0  15711-2 0  9993
2 57505  43.0053   4.8681 0002789 225.8359 134.2260 15.18160462143769
FLOCK 4H-15             
1 66718U 25276BE  26068.70846796  .00007584  00000+0  37246-3 0  9997
2 66718  97.4287 143.9241 0004493  23.8137 336.3304 15.18339872 15314
